STARLINK-4481           
1 53418U 22097AG  22241.58334491  .00078397  00000+0  55983-3 0  9995
2 53418  53.2198 151.9774 0000966  93.2798  44.4784 15.73115187  1308
STARLINK-4476           
1 53419U 22097AH  22241.66667824  .00088389  00000+0  62847-3 0  9993
2 53419  53.2194 151.6725 0001085  80.0978 117.3520 15.73167175  3499
STARLINK-4552           
1 53420U 22097AJ  22241.58334491  .00074950  00000+0  53428-3 0  9991
2 53420  53.2199 152.0807 0001131  96.9114 351.2501 15.73174042  1309
STARLINK-4545           
1 53421U 22097AK  22241.58334491  .00070278  00000+0  50120-3 0  9997
2 53421  53.2197 152.0831 0001108  90.4764 355.9162 15.73189351  1302
STARLINK-4546           
1 53422U 22097AL  22241.66667824  .00081762  00000+0  58210-3 0  9994
2 53422  53.2195 151.6646 0001087  85.3078 116.3093 15.73168861  3494
STARLINK-4539           
1 53423U 22097AM  22241.58334491  .00043495  00000+0  31387-3 0  9994
2 53423  53.2200 152.0834 0001226  84.2922   2.6961 15.73113784  1300
STARLINK-4532           
1 53424U 22097AN  22241.58334491  .00015663  00000+0  11574-3 0  9997
2 53424  53.2196 152.0754 0000950  95.1319 355.4213 15.73213998  1307
STARLINK-4531           
1 53425U 22097AP  22241.66667824  .00087091  00000+0  61961-3 0  9995
2 53425  53.2196 151.6656 0001280  92.8889 108.1309 15.73159343  3491
STARLINK-4558           
1 53426U 22097AQ  22241.66667824  .00056602  00000+0  40485-3 0  9998
2 53426  53.2195 151.6616 0000961  92.0574 111.2958 15.73208487  3494
STARLINK-4541           
1 53427U 22097AR  22241.66667824  .00088040  00000+0  62594-3 0  9995
2 53427  53.2202 151.6627 0001088  92.4692 109.7280 15.73170823  3494
STARLINK-4540           
1 53428U 22097AS  22241.58334491 -.00034447  00000+0 -24166-3 0  9995
2 53428  53.2193 152.0696 0000919  88.9010   4.0340 15.73236221  1308
STARLINK-4543           
1 53429U 22097AT  22241.66667824 -.00021074  00000+0 -14598-3 0  9994
2 53429  53.2193 151.6577 0000953 104.0526 100.5447 15.73222519  3499
STARLINK-4538           
1 53430U 22097AU  22241.58334491  .00079541  00000+0  56634-3 0  9995
2 53430  53.2204 152.0697 0000856  89.8674   3.6682 15.73177769  1306
STARLINK-4548           
1 53431U 22097AV  22241.66667824  .00006719  00000+0  52216-4 0  9994
2 53431  53.2195 151.6600 0001221  80.6510 123.3163 15.73216641  3499
STARLINK-4557           
1 53432U 22097AW  22241.66667824 -.00283191  00000+0 -20778-2 0  9994
2 53432  53.2183 151.6490 0001172  85.7631 121.8246 15.73247260  3495
STARLINK-4549           
1 53433U 22097AX  22241.66667824  .00080647  00000+0  57425-3 0  9994
2 53433  53.2193 151.6548 0000901  84.7330 121.6477 15.73170738  3494
STARLINK-4498           
1 53434U 22097AY  22241.66667824  .00075475  00000+0  53801-3 0  9992
2 53434  53.2193 151.6506 0000895  87.5927 121.1698 15.73171992  3497
